[{"OBJECT_NAME":"KUIPER-00083","OBJECT_ID":"2025-151P","EPOCH":"2026-03-09T19:59:28.461120","MEAN_MOTION":14.79940147,"ECCENTRICITY":8.677e-5,"INCLINATION":51.9009,"RA_OF_ASC_NODE":294.9578,"ARG_OF_PERICENTER":102.892,"MEAN_ANOMALY":257.2139,"EPHEMERIS_TYPE":0,"CLASSIFICATION_TYPE":"U","NORAD_CAT_ID":64829,"ELEMENT_SET_NO":999,"REV_AT_EPOCH":3658,"BSTAR":0.00062657411,"MEAN_MOTION_DOT":4.559e-5,"MEAN_MOTION_DDOT":0},{"OBJECT_NAME":"CZ-6A DEB","OBJECT_ID":"2024-140TE","EPOCH":"2026-03-09T14:15:52.010208","MEAN_MOTION":14.60552911,"ECCENTRICITY":0.0091089,"INCLINATION":89.0388,"RA_OF_ASC_NODE":285.1287,"ARG_OF_PERICENTER":244.8325,"MEAN_ANOMALY":114.3421,"EPHEMERIS_TYPE":0,"CLASSIFICATION_TYPE":"U","NORAD_CAT_ID":61293,"ELEMENT_SET_NO":999,"REV_AT_EPOCH":8120,"BSTAR":0.0011803,"MEAN_MOTION_DOT":6.094e-5,"MEAN_MOTION_DDOT":0}]
